start=new Date('2022-02-14T00:00:00.000Z').valueOf();
sats=[{"REF_FRAME":"TEME","TLE_LINE2":"2 49178  69.9989  78.0907 0003625 282.6154 287.2890 14.98282179 24728","EPHEMERIS_TYPE":"0","ARG_OF_PERICENTER":"282.6154","REV_AT_EPOCH":"2472","PERIAPSIS":"569.686","APOAPSIS":"574.725","OBJECT_NAME":"STARLINK-3086","MEAN_ANOMALY":"287.2890","MEAN_MOTION_DDOT":"0.0000000000000","MEAN_MOTION_DOT":"0.00061829","OBJECT_TYPE":"PAYLOAD","RCS_SIZE":"LARGE","LAUNCH_DATE":"2021-09-14","CENTER_NAME":"EARTH","TLE_LINE1":"1 49178U 21082BA  22044.91667824  .00061829  00000-0  51502-2 0  9998","MEAN_ELEMENT_THEORY":"SGP4","PERIOD":"96.110","OBJECT_ID":"2021-082BA","SITE":"AFWTR","FILE":"3299873","COUNTRY_CODE":"US","NORAD_CAT_ID":"49178","MEAN_MOTION":"14.98282179","INCLINATION":"69.9989","SEMIMAJOR_AXIS":"6950.341","ELEMENT_SET_NO":"999","RA_OF_ASC_NODE":"78.0907","DECAY_DATE":null,"EPOCH":"2022-02-13T22:00:00.999936","BSTAR":"0.00515020000000","GP_ID":"195901997","ECCENTRICITY":"0.00036250","CLASSIFICATION_TYPE":"U","TIME_SYSTEM":"UTC"},{"REV_AT_EPOCH":"369","PERIAPSIS":"357.003","REF_FRAME":"TEME","EPHEMERIS_TYPE":"0","ARG_OF_PERICENTER":"296.6621","TLE_LINE2":"2 49179  69.9981  58.2367 0003874 296.6621 320.0520 15.69750394  3698","MEAN_MOTION_DDOT":"0.0000000000000","MEAN_MOTION_DOT":"-0.00002901","MEAN_ANOMALY":"320.0520","OBJECT_TYPE":"PAYLOAD","APOAPSIS":"362.223","OBJECT_NAME":"STARLINK-3043","OBJECT_ID":"2021-082BB","SITE":"AFWTR","PERIOD":"91.734","NORAD_CAT_ID":"49179","COUNTRY_CODE":"US","MEAN_MOTION":"15.69750394","FILE":"3299685","RCS_SIZE":"LARGE","TLE_LINE1":"1 49179U 21082BB  22044.58334491 -.00002901  00000-0 -22527-4 0  9998","MEAN_ELEMENT_THEORY":"SGP4","CENTER_NAME":"EARTH","LAUNCH_DATE":"2021-09-14","ECCENTRICITY":"0.00038740","GP_ID":"195895951","EPOCH":"2022-02-13T14:00:01.000224","BSTAR":"-0.00002252700000","CLASSIFICATION_TYPE":"U","TIME_SYSTEM":"UTC","SEMIMAJOR_AXIS":"6737.748","RA_OF_ASC_NODE":"58.2367","ELEMENT_SET_NO":"999","INCLINATION":"69.9981","DECAY_DATE":null},{"INCLINATION":"70.0000","RA_OF_ASC_NODE":"59.0251","SEMIMAJOR_AXIS":"6835.573","ELEMENT_SET_NO":"999","DECAY_DATE":null,"BSTAR":"-0.01994800000000","EPOCH":"2022-02-13T22:00:00.999936","ECCENTRICITY":"0.00034800","GP_ID":"195902038","TIME_SYSTEM":"UTC","CLASSIFICATION_TYPE":"U","RCS_SIZE":"LARGE","LAUNCH_DATE":"2021-09-14","CENTER_NAME":"EARTH","MEAN_ELEMENT_THEORY":"SGP4","TLE_LINE1":"1 49180U 21082BC  22044.91667824 -.00656094  00000-0 -19948-1 0  9994","PERIOD":"93.739","SITE":"AFWTR","OBJECT_ID":"2021-082BC","FILE":"3299866","NORAD_CAT_ID":"49180","COUNTRY_CODE":"US","MEAN_MOTION":"15.36173722","APOAPSIS":"459.817","OBJECT_NAME":"STARLINK-3050","MEAN_MOTION_DDOT":"0.0000000000000","MEAN_ANOMALY":"60.6471","MEAN_MOTION_DOT":"-0.00656094","OBJECT_TYPE":"PAYLOAD","REF_FRAME":"TEME","TLE_LINE2":"2 49180  70.0000  59.0251 0003480 279.7970  60.6471 15.36173722 25209","ARG_OF_PERICENTER":"279.7970","EPHEMERIS_TYPE":"0","REV_AT_EPOCH":"2520","PERIAPSIS":"455.060"},{"ECCENTRICITY":"0.00031480","GP_ID":"195902033","BSTAR":"0.00517820000000","EPOCH":"2022-02-13T22:00:00.999936","TIME_SYSTEM":"UTC","CLASSIFICATION_TYPE":"U","SEMIMAJOR_AXIS":"6950.348","RA_OF_ASC_NODE":"78.0939","ELEMENT_SET_NO":"999","INCLINATION":"70.0006","DECAY_DATE":null,"SITE":"AFWTR","OBJECT_ID":"2021-082BD","PERIOD":"96.110","COUNTRY_CODE":"US","NORAD_CAT_ID":"49181","MEAN_MOTION":"14.98279927","FILE":"3299866","RCS_SIZE":"LARGE","MEAN_ELEMENT_THEORY":"SGP4","TLE_LINE1":"1 49181U 21082BD  22044.91667824  .00062163  00000-0  51782-2 0  9994","LAUNCH_DATE":"2021-09-14","CENTER_NAME":"EARTH","MEAN_MOTION_DDOT":"0.0000000000000","MEAN_MOTION_DOT":"0.00062163","MEAN_ANOMALY":"35.0087","OBJECT_TYPE":"PAYLOAD","APOAPSIS":"574.401","OBJECT_NAME":"STARLINK-3059","REV_AT_EPOCH":"2474","PERIAPSIS":"570.025","REF_FRAME":"TEME","ARG_OF_PERICENTER":"277.7386","EPHEMERIS_TYPE":"0","TLE_LINE2":"2 49181  70.0006  78.0939 0003148 277.7386  35.0087 14.98279927 24748"},{"EPOCH":"2022-02-13T22:00:00.999936","BSTAR":"0.00103930000000","ECCENTRICITY":"0.00018560","GP_ID":"195900638","CLASSIFICATION_TYPE":"U","TIME_SYSTEM":"UTC","INCLINATION":"53.2164","RA_OF_ASC_NODE":"54.5286","SEMIMAJOR_AXIS":"6917.890","ELEMENT_SET_NO":"999","DECAY_DATE":null,"PERIOD":"95.438","OBJECT_ID":"2021-104A","SITE":"AFETR","FILE":"3299821","MEAN_MOTION":"15.08837014","COUNTRY_CODE":"US","NORAD_CAT_ID":"49408","RCS_SIZE":"LARGE","LAUNCH_DATE":"2021-11-13","CENTER_NAME":"EARTH","TLE_LINE1":"1 49408U 21104A   22044.91667824  .00016290  00000-0  10393-2 0  9994","MEAN_ELEMENT_THEORY":"SGP4","MEAN_MOTION_DDOT":"0.0000000000000","MEAN_MOTION_DOT":"0.00016290","MEAN_ANOMALY":"186.0199","OBJECT_TYPE":"PAYLOAD","APOAPSIS":"541.038","OBJECT_NAME":"STARLINK-3151","REV_AT_EPOCH":"1557","PERIAPSIS":"538.471","REF_FRAME":"TEME","TLE_LINE2":"2 49408  53.2164  54.5286 0001856  43.5845 186.0199 15.08837014 15576","EPHEMERIS_TYPE":"0","ARG_OF_PERICENTER":"43.5845"},{"OBJECT_TYPE":"PAYLOAD","MEAN_MOTION_DDOT":"0.0000000000000","MEAN_ANOMALY":"105.2182","MEAN_MOTION_DOT":"0.00008396","OBJECT_NAME":"STARLINK-3075","APOAPSIS":"541.396","REV_AT_EPOCH":"360","PERIAPSIS":"538.198","ARG_OF_PERICENTER":"32.7110","EPHEMERIS_TYPE":"0","TLE_LINE2":"2 49409  53.2188  56.0106 0002312  32.7110 105.2182 15.08823093  3602","REF_FRAME":"TEME","TIME_SYSTEM":"UTC","CLASSIFICATION_TYPE":"U","GP_ID":"195895977","ECCENTRICITY":"0.00023120","BSTAR":"0.00054523000000","EPOCH":"2022-02-13T14:00:01.000224","DECAY_DATE":null,"SEMIMAJOR_AXIS":"6917.932","RA_OF_ASC_NODE":"56.0106","ELEMENT_SET_NO":"999","INCLINATION":"53.2188","NORAD_CAT_ID":"49409","COUNTRY_CODE":"US","MEAN_MOTION":"15.08823093","FILE":"3299685","SITE":"AFETR","OBJECT_ID":"2021-104B","PERIOD":"95.439","MEAN_ELEMENT_THEORY":"SGP4","TLE_LINE1":"1 49409U 21104B   22044.58334491  .00008396  00000-0  54523-3 0  9991","LAUNCH_DATE":"2021-11-13","CENTER_NAME":"EARTH","RCS_SIZE":"LARGE"},{"MEAN_MOTION":"15.08831495","COUNTRY_CODE":"US","NORAD_CAT_ID":"49410","FILE":"3299685","SITE":"AFETR","OBJECT_ID":"2021-104C","PERIOD":"95.438","MEAN_ELEMENT_THEORY":"SGP4","TLE_LINE1":"1 49410U 21104C   22044.58334491  .00005932  00000-0  39061-3 0  9996","CENTER_NAME":"EARTH","LAUNCH_DATE":"2021-11-13","RCS_SIZE":"LARGE","TIME_SYSTEM":"UTC","CLASSIFICATION_TYPE":"U","ECCENTRICITY":"0.00024100","GP_ID":"195896727","BSTAR":"0.00039061000000","EPOCH":"2022-02-13T14:00:01.000224","DECAY_DATE":null,"SEMIMAJOR_AXIS":"6917.906","RA_OF_ASC_NODE":"56.0308","ELEMENT_SET_NO":"999","INCLINATION":"53.2158","REV_AT_EPOCH":"360","PERIAPSIS":"538.104","ARG_OF_PERICENTER":"35.1107","EPHEMERIS_TYPE":"0","TLE_LINE2":"2 49410  53.2158  56.0308 0002410  35.1107 142.8266 15.08831495  3602","REF_FRAME":"TEME","OBJECT_TYPE":"PAYLOAD","MEAN_MOTION_DDOT":"0.0000000000000","MEAN_ANOMALY":"142.8266","MEAN_MOTION_DOT":"0.00005932","OBJECT_NAME":"STARLINK-3147","APOAPSIS":"541.439"},{"REF_FRAME":"TEME","TLE_LINE2":"2 49411  53.2173  44.6176 0001851  42.6361 141.7042 15.14415820 15700","EPHEMERIS_TYPE":"0","ARG_OF_PERICENTER":"42.6361","PERIAPSIS":"521.477","REV_AT_EPOCH":"1570","APOAPSIS":"524.032","OBJECT_NAME":"STARLINK-3162","MEAN_ANOMALY":"141.7042","MEAN_MOTION_DDOT":"0.0000000000000","MEAN_MOTION_DOT":"-0.00666724","OBJECT_TYPE":"PAYLOAD","RCS_SIZE":"LARGE","CENTER_NAME":"EARTH","LAUNCH_DATE":"2021-11-13","MEAN_ELEMENT_THEORY":"SGP4","TLE_LINE1":"1 49411U 21104D   22044.91667824 -.00666724  00000-0 -38311-1 0  9992","PERIOD":"95.086","OBJECT_ID":"2021-104D","SITE":"AFETR","FILE":"3299899","COUNTRY_CODE":"US","NORAD_CAT_ID":"49411","MEAN_MOTION":"15.14415820","INCLINATION":"53.2173","RA_OF_ASC_NODE":"44.6176","SEMIMAJOR_AXIS":"6900.890","ELEMENT_SET_NO":"999","DECAY_DATE":null,"EPOCH":"2022-02-13T22:00:00.999936","BSTAR":"-0.03831100000000","ECCENTRICITY":"0.00018510","GP_ID":"195902750","CLASSIFICATION_TYPE":"U","TIME_SYSTEM":"UTC"},{"TLE_LINE2":"2 49412  53.2183  54.5148 0001981  43.8175 125.6790 15.08772925 15583","ARG_OF_PERICENTER":"43.8175","EPHEMERIS_TYPE":"0","REF_FRAME":"TEME","PERIAPSIS":"538.580","REV_AT_EPOCH":"1558","OBJECT_NAME":"STARLINK-3144","APOAPSIS":"541.321","OBJECT_TYPE":"PAYLOAD","MEAN_ANOMALY":"125.6790","MEAN_MOTION_DDOT":"0.0000000000000","MEAN_MOTION_DOT":"0.00110931","LAUNCH_DATE":"2021-11-13","CENTER_NAME":"EARTH","MEAN_ELEMENT_THEORY":"SGP4","TLE_LINE1":"1 49412U 21104E   22044.91667824  .00110931  00000-0  68923-2 0  9998","RCS_SIZE":"LARGE","FILE":"3299723","MEAN_MOTION":"15.08772925","COUNTRY_CODE":"US","NORAD_CAT_ID":"49412","PERIOD":"95.442","SITE":"AFETR","OBJECT_ID":"2021-104E","DECAY_DATE":null,"INCLINATION":"53.2183","RA_OF_ASC_NODE":"54.5148","SEMIMAJOR_AXIS":"6918.085","ELEMENT_SET_NO":"999","TIME_SYSTEM":"UTC","CLASSIFICATION_TYPE":"U","BSTAR":"0.00689230000000","EPOCH":"2022-02-13T22:00:00.999936","ECCENTRICITY":"0.00019810","GP_ID":"195898239"},{"RCS_SIZE":"LARGE","MEAN_ELEMENT_THEORY":"SGP4","TLE_LINE1":"1 49413U 21104F   22044.91667824 -.00666700  00000-0 -38184-1 0  9996","LAUNCH_DATE":"2021-11-13","CENTER_NAME":"EARTH","SITE":"AFETR","OBJECT_ID":"2021-104F","PERIOD":"95.079","MEAN_MOTION":"15.14530905","COUNTRY_CODE":"US","NORAD_CAT_ID":"49413","FILE":"3299901","RA_OF_ASC_NODE":"44.6183","SEMIMAJOR_AXIS":"6900.540","ELEMENT_SET_NO":"999","INCLINATION":"53.2172","DECAY_DATE":null,"GP_ID":"195902660","ECCENTRICITY":"0.00019560","BSTAR":"-0.03818400000000","EPOCH":"2022-02-13T22:00:00.999936","TIME_SYSTEM":"UTC","CLASSIFICATION_TYPE":"U","REF_FRAME":"TEME","ARG_OF_PERICENTER":"38.7044","EPHEMERIS_TYPE":"0","TLE_LINE2":"2 49413  53.2172  44.6183 0001956  38.7044 163.9674 15.14530905 15719","PERIAPSIS":"521.055","REV_AT_EPOCH":"1571","APOAPSIS":"523.755","OBJECT_NAME":"STARLINK-3157","MEAN_MOTION_DDOT":"0.0000000000000","MEAN_MOTION_DOT":"-0.00666700","MEAN_ANOMALY":"163.9674","OBJECT_TYPE":"PAYLOAD"}];
